start=new Date('2022-03-04T00:00:00.000Z').valueOf();
sats=[{"MEAN_MOTION":"15.06404370","GP_ID":"197765056","TLE_LINE2":"2 45210  53.0543 131.4023 0001554  65.3231 294.7920 15.06404370113922","SITE":"AFETR","PERIAPSIS":"546.124","MEAN_MOTION_DOT":"0.00001320","ECCENTRICITY":"0.00015540","OBJECT_NAME":"STARLINK-1219","BSTAR":"0.00010746000000","FILE":"3343255","OBJECT_ID":"2020-012AJ","ARG_OF_PERICENTER":"65.3231","SEMIMAJOR_AXIS":"6925.335","ELEMENT_SET_NO":"999","RA_OF_ASC_NODE":"131.4023","TIME_SYSTEM":"UTC","CENTER_NAME":"EARTH","PERIOD":"95.592","EPOCH":"2022-03-03T21:04:20.883936","NORAD_CAT_ID":"45210","DECAY_DATE":null,"TLE_LINE1":"1 45210U 20012AJ  22062.87801949  .00001320  00000-0  10746-3 0  9992","REF_FRAME":"TEME","LAUNCH_DATE":"2020-02-17","COUNTRY_CODE":"US","MEAN_ANOMALY":"294.7920","APOAPSIS":"548.276","INCLINATION":"53.0543","MEAN_MOTION_DDOT":"0.0000000000000","REV_AT_EPOCH":"11392","MEAN_ELEMENT_THEORY":"SGP4","EPHEMERIS_TYPE":"0","CLASSIFICATION_TYPE":"U","RCS_SIZE":"LARGE","OBJECT_TYPE":"PAYLOAD"},{"OBJECT_ID":"2020-012AL","SEMIMAJOR_AXIS":"6925.339","ARG_OF_PERICENTER":"58.9348","MEAN_MOTION":"15.06403125","GP_ID":"197766308","TLE_LINE2":"2 45212  53.0552 132.7264 0001813  58.9348 301.1818 15.06403125113948","PERIAPSIS":"545.948","SITE":"AFETR","ECCENTRICITY":"0.00018130","MEAN_MOTION_DOT":"0.00000137","OBJECT_NAME":"STARLINK-1231","FILE":"3343255","BSTAR":"0.00002807400000","MEAN_ANOMALY":"301.1818","REF_FRAME":"TEME","TLE_LINE1":"1 45212U 20012AL  22062.57946893  .00000137  00000-0  28074-4 0  9998","DECAY_DATE":null,"LAUNCH_DATE":"2020-02-17","COUNTRY_CODE":"US","APOAPSIS":"548.460","MEAN_MOTION_DDOT":"0.0000000000000","INCLINATION":"53.0552","REV_AT_EPOCH":"11394","MEAN_ELEMENT_THEORY":"SGP4","EPHEMERIS_TYPE":"0","CLASSIFICATION_TYPE":"U","RCS_SIZE":"LARGE","OBJECT_TYPE":"PAYLOAD","ELEMENT_SET_NO":"999","RA_OF_ASC_NODE":"132.7264","TIME_SYSTEM":"UTC","CENTER_NAME":"EARTH","PERIOD":"95.592","NORAD_CAT_ID":"45212","EPOCH":"2022-03-03T13:54:26.115552"},{"OBJECT_ID":"2020-012AM","ARG_OF_PERICENTER":"316.9784","SEMIMAJOR_AXIS":"6842.515","MEAN_MOTION":"15.33836723","GP_ID":"197766058","TLE_LINE2":"2 45213  53.0579 125.0933 0002253 316.9784  43.1041 15.33836723114100","SITE":"AFETR","PERIAPSIS":"462.838","MEAN_MOTION_DOT":"0.00040281","ECCENTRICITY":"0.00022530","OBJECT_NAME":"STARLINK-1232","BSTAR":"0.00121830000000","FILE":"3343255","DECAY_DATE":null,"TLE_LINE1":"1 45213U 20012AM  22062.59133772  .00040281  00000-0  12183-2 0  9991","LAUNCH_DATE":"2020-02-17","REF_FRAME":"TEME","COUNTRY_CODE":"US","MEAN_ANOMALY":"43.1041","APOAPSIS":"465.922","INCLINATION":"53.0579","MEAN_MOTION_DDOT":"0.0000000000000","MEAN_ELEMENT_THEORY":"SGP4","REV_AT_EPOCH":"11410","EPHEMERIS_TYPE":"0","CLASSIFICATION_TYPE":"U","OBJECT_TYPE":"PAYLOAD","RCS_SIZE":"LARGE","ELEMENT_SET_NO":"999","RA_OF_ASC_NODE":"125.0933","TIME_SYSTEM":"UTC","CENTER_NAME":"EARTH","PERIOD":"93.882","EPOCH":"2022-03-03T14:11:31.579008","NORAD_CAT_ID":"45213"},{"BSTAR":"-0.00013531000000","FILE":"3343255","MEAN_MOTION_DOT":"-0.00002296","ECCENTRICITY":"0.00015260","OBJECT_NAME":"STARLINK-1233","GP_ID":"197765307","TLE_LINE2":"2 45214  53.0556 132.5531 0001526  55.5621 304.5512 15.06386629113999","PERIAPSIS":"546.198","SITE":"AFETR","MEAN_MOTION":"15.06386629","OBJECT_ID":"2020-012AN","SEMIMAJOR_AXIS":"6925.390","ARG_OF_PERICENTER":"55.5621","EPOCH":"2022-03-03T14:52:49.825632","NORAD_CAT_ID":"45214","CENTER_NAME":"EARTH","PERIOD":"95.593","TIME_SYSTEM":"UTC","ELEMENT_SET_NO":"999","RA_OF_ASC_NODE":"132.5531","OBJECT_TYPE":"PAYLOAD","RCS_SIZE":"LARGE","EPHEMERIS_TYPE":"0","CLASSIFICATION_TYPE":"U","INCLINATION":"53.0556","MEAN_MOTION_DDOT":"0.0000000000000","REV_AT_EPOCH":"11399","MEAN_ELEMENT_THEORY":"SGP4","DECAY_DATE":null,"TLE_LINE1":"1 45214U 20012AN  22062.62002113 -.00002296  00000-0 -13531-3 0  9995","REF_FRAME":"TEME","LAUNCH_DATE":"2020-02-17","COUNTRY_CODE":"US","MEAN_ANOMALY":"304.5512","APOAPSIS":"548.311"},{"FILE":"3343255","BSTAR":"0.00002190300000","ECCENTRICITY":"0.00016230","MEAN_MOTION_DOT":"0.00000045","OBJECT_NAME":"STARLINK-1245","TLE_LINE2":"2 45215  53.0543 132.5631 0001623  60.5112 299.6039 15.06392644113932","GP_ID":"197765557","SITE":"AFETR","PERIAPSIS":"546.112","MEAN_MOTION":"15.06392644","OBJECT_ID":"2020-012AP","SEMIMAJOR_AXIS":"6925.371","ARG_OF_PERICENTER":"60.5112","NORAD_CAT_ID":"45215","EPOCH":"2022-03-03T14:47:31.006176","CENTER_NAME":"EARTH","PERIOD":"95.593","TIME_SYSTEM":"UTC","ELEMENT_SET_NO":"999","RA_OF_ASC_NODE":"132.5631","RCS_SIZE":"LARGE","OBJECT_TYPE":"PAYLOAD","EPHEMERIS_TYPE":"0","CLASSIFICATION_TYPE":"U","MEAN_MOTION_DDOT":"0.0000000000000","INCLINATION":"53.0543","REV_AT_EPOCH":"11393","MEAN_ELEMENT_THEORY":"SGP4","MEAN_ANOMALY":"299.6039","TLE_LINE1":"1 45215U 20012AP  22062.61633109  .00000045  00000-0  21903-4 0  9991","DECAY_DATE":null,"LAUNCH_DATE":"2020-02-17","COUNTRY_CODE":"US","REF_FRAME":"TEME","APOAPSIS":"548.360"},{"INCLINATION":"53.0546","MEAN_MOTION_DDOT":"0.0000000000000","REV_AT_EPOCH":"11399","MEAN_ELEMENT_THEORY":"SGP4","COUNTRY_CODE":"US","TLE_LINE1":"1 45217U 20012AR  22062.59051569  .00001044  00000-0  88949-4 0  9997","DECAY_DATE":null,"LAUNCH_DATE":"2020-02-17","REF_FRAME":"TEME","MEAN_ANOMALY":"302.0244","APOAPSIS":"548.198","OBJECT_TYPE":"PAYLOAD","RCS_SIZE":"LARGE","EPHEMERIS_TYPE":"0","CLASSIFICATION_TYPE":"U","TIME_SYSTEM":"UTC","ELEMENT_SET_NO":"999","RA_OF_ASC_NODE":"132.6857","EPOCH":"2022-03-03T14:10:20.555616","NORAD_CAT_ID":"45217","CENTER_NAME":"EARTH","PERIOD":"95.592","OBJECT_ID":"2020-012AR","SEMIMAJOR_AXIS":"6925.328","ARG_OF_PERICENTER":"58.0886","GP_ID":"197765808","TLE_LINE2":"2 45217  53.0546 132.6857 0001451  58.0886 302.0244 15.06406759113993","PERIAPSIS":"546.188","SITE":"AFETR","MEAN_MOTION":"15.06406759","BSTAR":"0.00008894900000","FILE":"3343255","ECCENTRICITY":"0.00014510","MEAN_MOTION_DOT":"0.00001044","OBJECT_NAME":"STARLINK-1271"},{"MEAN_MOTION_DOT":"0.00001260","ECCENTRICITY":"0.00015830","OBJECT_NAME":"STARLINK-1187","FILE":"3343255","BSTAR":"0.00010348000000","MEAN_MOTION":"15.06399669","GP_ID":"197766559","TLE_LINE2":"2 45219  53.0544 111.4995 0001583  60.5152 299.5994 15.06399669114322","SITE":"AFETR","PERIAPSIS":"546.118","OBJECT_ID":"2020-012AT","SEMIMAJOR_AXIS":"6925.350","ARG_OF_PERICENTER":"60.5152","CENTER_NAME":"EARTH","PERIOD":"95.592","NORAD_CAT_ID":"45219","EPOCH":"2022-03-03T20:29:51.707616","ELEMENT_SET_NO":"999","RA_OF_ASC_NODE":"111.4995","TIME_SYSTEM":"UTC","EPHEMERIS_TYPE":"0","CLASSIFICATION_TYPE":"U","OBJECT_TYPE":"PAYLOAD","RCS_SIZE":"LARGE","MEAN_ANOMALY":"299.5994","DECAY_DATE":null,"TLE_LINE1":"1 45219U 20012AT  22062.85407069  .00001260  00000-0  10348-3 0  9995","COUNTRY_CODE":"US","LAUNCH_DATE":"2020-02-17","REF_FRAME":"TEME","APOAPSIS":"548.311","MEAN_MOTION_DDOT":"0.0000000000000","INCLINATION":"53.0544","MEAN_ELEMENT_THEORY":"SGP4","REV_AT_EPOCH":"11432"},{"CENTER_NAME":"EARTH","PERIOD":"95.593","EPOCH":"2022-03-03T20:35:10.822560","NORAD_CAT_ID":"45221","ELEMENT_SET_NO":"999","RA_OF_ASC_NODE":"111.4904","TIME_SYSTEM":"UTC","EPHEMERIS_TYPE":"0","CLASSIFICATION_TYPE":"U","OBJECT_TYPE":"PAYLOAD","RCS_SIZE":"LARGE","DECAY_DATE":null,"TLE_LINE1":"1 45221U 20012AV  22062.85776415  .00001660  00000-0  13033-3 0  9990","LAUNCH_DATE":"2020-02-17","COUNTRY_CODE":"US","REF_FRAME":"TEME","MEAN_ANOMALY":"299.7638","APOAPSIS":"548.168","INCLINATION":"53.0547","MEAN_MOTION_DDOT":"0.0000000000000","MEAN_ELEMENT_THEORY":"SGP4","REV_AT_EPOCH":"11431","ECCENTRICITY":"0.00013460","MEAN_MOTION_DOT":"0.00001660","OBJECT_NAME":"STARLINK-1189","BSTAR":"0.00013033000000","FILE":"3343255","MEAN_MOTION":"15.06392680","GP_ID":"197764807","TLE_LINE2":"2 45221  53.0547 111.4904 0001346  60.3484 299.7638 15.06392680114313","PERIAPSIS":"546.304","SITE":"AFETR","OBJECT_ID":"2020-012AV","ARG_OF_PERICENTER":"60.3484","SEMIMAJOR_AXIS":"6925.371"},{"SEMIMAJOR_AXIS":"6925.353","ARG_OF_PERICENTER":"63.4178","OBJECT_ID":"2020-012AW","SITE":"AFETR","PERIAPSIS":"546.068","GP_ID":"197765057","TLE_LINE2":"2 45222  53.0531 111.4534 0001661  63.4178 296.6981 15.06398564114314","MEAN_MOTION":"15.06398564","FILE":"3343255","BSTAR":"0.00009635400000","OBJECT_NAME":"STARLINK-1191","ECCENTRICITY":"0.00016610","MEAN_MOTION_DOT":"0.00001154","MEAN_ELEMENT_THEORY":"SGP4","REV_AT_EPOCH":"11431","MEAN_MOTION_DDOT":"0.0000000000000","INCLINATION":"53.0531","APOAPSIS":"548.368","MEAN_ANOMALY":"296.6981","COUNTRY_CODE":"US","TLE_LINE1":"1 45222U 20012AW  22062.86513886  .00001154  00000-0  96354-4 0  9999","DECAY_DATE":null,"LAUNCH_DATE":"2020-02-17","REF_FRAME":"TEME","RCS_SIZE":"LARGE","OBJECT_TYPE":"PAYLOAD","CLASSIFICATION_TYPE":"U","EPHEMERIS_TYPE":"0","TIME_SYSTEM":"UTC","RA_OF_ASC_NODE":"111.4534","ELEMENT_SET_NO":"999","NORAD_CAT_ID":"45222","EPOCH":"2022-03-03T20:45:47.997504","PERIOD":"95.592","CENTER_NAME":"EARTH"},{"BSTAR":"0.00016566000000","FILE":"3343255","OBJECT_NAME":"STARLINK-1212","MEAN_MOTION_DOT":"0.00002187","ECCENTRICITY":"0.00015890","PERIAPSIS":"546.106","SITE":"AFETR","TLE_LINE2":"2 45223  53.0544 111.6595 0001589  51.1105 309.0026 15.06402424114311","GP_ID":"197766309","MEAN_MOTION":"15.06402424","ARG_OF_PERICENTER":"51.1105","SEMIMAJOR_AXIS":"6925.341","OBJECT_ID":"2020-012AX","EPOCH":"2022-03-03T19:42:05.098176","NORAD_CAT_ID":"45223","PERIOD":"95.592","CENTER_NAME":"EARTH","TIME_SYSTEM":"UTC","RA_OF_ASC_NODE":"111.6595","ELEMENT_SET_NO":"999","OBJECT_TYPE":"PAYLOAD","RCS_SIZE":"LARGE","CLASSIFICATION_TYPE":"U","EPHEMERIS_TYPE":"0","MEAN_ELEMENT_THEORY":"SGP4","REV_AT_EPOCH":"11431","INCLINATION":"53.0544","MEAN_MOTION_DDOT":"0.0000000000000","APOAPSIS":"548.307","TLE_LINE1":"1 45223U 20012AX  22062.82089234  .00002187  00000-0  16566-3 0  9994","COUNTRY_CODE":"US","DECAY_DATE":null,"LAUNCH_DATE":"2020-02-17","REF_FRAME":"TEME","MEAN_ANOMALY":"309.0026"}];
